NORAD_CAT_ID,OBJECT_NAME,OBJECT_TYPE,EPOCH,MEAN_MOTION,ECCENTRICITY,INCLINATION,RA_OF_ASC_NODE,ARG_OF_PERICENTER,MEAN_ANOMALY,BSTAR,MEAN_MOTION_DOT,MEAN_MOTION_DDOT,TLE_LINE0,TLE_LINE1,TLE_LINE2,SEMIMAJOR_AXIS,PERIOD,APOGEE,PERIGEE,DECAYED
54011.0,STARLINK-5124,PAYLOAD,2023-10-15 02:06:10,15.08835566,0.0001478,53.2161,179.4919,90.9259,269.1903,-5.2451e-05,-1.123e-05,0.0,0 STARLINK-5124,1 54011U 22125AZ  23288.08762439 -.00001123  00000-0 -52451-4 0  9995,2 54011  53.2161 179.4919 0001478  90.9259 269.1903 15.08835566 57318,6917.894,95.438,540.781,538.736,0.0
54011.0,STARLINK-5124,PAYLOAD,2023-10-15 10:03:06,15.08833623,0.0001471,53.2159,178.005,90.4216,269.6945,9.4447e-05,1.215e-05,0.0,0 STARLINK-5124,1 54011U 22125AZ  23288.41882638  .00001215  00000-0  94447-4 0  9997,2 54011  53.2159 178.0050 0001471  90.4216 269.6945 15.08833623 57310,6917.9,95.438,540.783,538.747,0.0
54011.0,STARLINK-5124,PAYLOAD,2023-10-15 21:10:48,15.08839128,0.0001327,53.2155,175.9236,90.9872,269.1272,0.00029888,4.472e-05,0.0,0 STARLINK-5124,1 54011U 22125AZ  23288.88250760  .00004472  00000-0  29888-3 0  9997,2 54011  53.2155 175.9236 0001327  90.9872 269.1272 15.08839128 57382,6917.883,95.438,540.666,538.83,0.0
54011.0,STARLINK-5124,PAYLOAD,2023-10-16 00:21:34,15.08847016,0.0001313,53.2156,175.3285,92.1728,267.9414,0.00046139,7.064e-05,0.0,0 STARLINK-5124,1 54011U 22125AZ  23289.01498563  .00007064  00000-0  46139-3 0  9996,2 54011  53.2156 175.3285 0001313  92.1728 267.9414 15.08847016 57457,6917.859,95.437,540.632,538.816,0.0
54011.0,STARLINK-5124,PAYLOAD,2023-10-16 09:53:53,15.08839337,0.0001267,53.2153,173.5444,95.5027,264.6109,0.00028964,4.325e-05,0.0,0 STARLINK-5124,1 54011U 22125AZ  23289.41242900  .00004325  00000-0  28964-3 0  9995,2 54011  53.2153 173.5444 0001267  95.5027 264.6109 15.08839337 57517,6917.882,95.438,540.624,538.871,0.0
54011.0,STARLINK-5124,PAYLOAD,2023-10-16 19:26:12,15.08841773,0.0001344,53.2154,171.7606,90.0183,270.0963,0.00029672,4.438e-05,0.0,0 STARLINK-5124,1 54011U 22125AZ  23289.80986953  .00004438  00000-0  29672-3 0  9993,2 54011  53.2154 171.7606 0001344  90.0183 270.0963 15.08841773 57524,6917.875,95.437,540.67,538.81,0.0
54011.0,STARLINK-5124,PAYLOAD,2023-10-17 09:44:40,15.08846231,0.0001079,53.2162,169.0833,94.8449,265.2667,0.00021551,3.144e-05,0.0,0 STARLINK-5124,1 54011U 22125AZ  23290.40602461  .00003144  00000-0  21551-3 0  9991,2 54011  53.2162 169.0833 0001079  94.8449 265.2667 15.08846231 57618,6917.861,95.437,540.473,538.98,0.0
54011.0,STARLINK-5124,PAYLOAD,2023-10-17 22:27:45,15.0884768,0.0001238,53.2165,166.7051,89.1368,270.9766,0.00019695,2.849e-05,0.0,0 STARLINK-5124,1 54011U 22125AZ  23290.93594383  .00002849  00000-0  19695-3 0  9999,2 54011  53.2165 166.7051 0001238  89.1368 270.9766 15.08847680 57747,6917.857,95.437,540.578,538.865,0.0
54011.0,STARLINK-5124,PAYLOAD,2023-10-18 19:07:47,15.08825206,0.0002857,53.2148,162.8373,92.4511,267.6808,-0.00031476,-5.293e-05,0.0,0 STARLINK-5124,1 54011U 22125AZ  23291.79707588 -.00005293  00000-0 -31476-3 0  9996,2 54011  53.2148 162.8373 0002857  92.4511 267.6808 15.08825206 57871,6917.926,95.438,541.767,537.814,0.0
54011.0,STARLINK-5124,PAYLOAD,2023-10-18 22:18:32,15.08843182,0.0001383,53.2167,162.245,84.2872,275.8278,4.3323e-05,4.02e-06,0.0,0 STARLINK-5124,1 54011U 22125AZ  23291.92954482  .00000402  00000-0  43323-4 0  9998,2 54011  53.2167 162.2450 0001383  84.2872 275.8278 15.08843182 57846,6917.871,95.437,540.692,538.779,0.0
54011.0,STARLINK-5124,PAYLOAD,2023-10-19 22:09:18,15.08863681,0.0002855,53.2147,157.7819,90.539,269.5929,0.00012196,1.654e-05,0.0,0 STARLINK-5124,1 54011U 22125AZ  23292.92313184  .00001654  00000-0  12196-3 0  9990,2 54011  53.2147 157.7819 0002855  90.5390 269.5929 15.08863681 57997,6917.808,95.436,541.648,537.698,0.0
54011.0,STARLINK-5124,PAYLOAD,2023-10-20 01:20:04,15.08861124,0.0001449,53.2153,157.19,92.0994,268.0164,0.00042209,6.44e-05,0.0,0 STARLINK-5124,1 54011U 22125AZ  23293.05561326  .00006440  00000-0  42209-3 0  9994,2 54011  53.2153 157.1900 0001449  92.0994 268.0164 15.08861124 58068,6917.816,95.436,540.683,538.678,0.0
54011.0,STARLINK-5124,PAYLOAD,2023-10-20 20:24:43,15.08830608,0.0001739,53.2167,153.619,67.8967,292.221,-0.00016765,-2.955e-05,0.0,0 STARLINK-5124,1 54011U 22125AZ  23293.85050681 -.00002955  00000-0 -16765-3 0  9996,2 54011  53.2167 153.6190 0001739  67.8967 292.2210 15.08830608 58184,6917.909,95.438,540.977,538.571,0.0
54011.0,STARLINK-5124,PAYLOAD,2023-10-20 22:00:07,15.08829009,0.0001837,53.2173,153.3203,66.3376,293.7809,-0.00019676,-3.417e-05,0.0,0 STARLINK-5124,1 54011U 22125AZ  23293.91674774 -.00003417  00000-0 -19676-3 0  9996,2 54011  53.2173 153.3203 0001837  66.3376 293.7809 15.08829009 58149,6917.914,95.438,541.05,538.508,0.0
54011.0,STARLINK-5124,PAYLOAD,2023-10-21 07:32:25,15.08837943,8.4e-05,53.2164,151.538,39.6787,320.4267,-1.2112e-05,-4.8e-06,0.0,0 STARLINK-5124,1 54011U 22125AZ  23294.31418666 -.00000480  00000-0 -12112-4 0  9993,2 54011  53.2164 151.5380 0000840  39.6787 320.4267 15.08837943 58206,6917.887,95.438,540.333,539.171,0.0
54011.0,STARLINK-5124,PAYLOAD,2023-10-21 20:15:30,15.0884989,0.0001527,53.2159,149.1593,80.2448,279.8716,0.00027425,4.081e-05,0.0,0 STARLINK-5124,1 54011U 22125AZ  23294.84410177  .00004081  00000-0  27425-3 0  9991,2 54011  53.2159 149.1593 0001527  80.2448 279.8716 15.08849890 58332,6917.85,95.437,540.772,538.659,0.0
54011.0,STARLINK-5124,PAYLOAD,2023-10-21 21:50:53,15.08851016,0.000152,53.2158,148.8623,79.8867,280.2296,0.0004788,7.343e-05,0.0,0 STARLINK-5124,1 54011U 22125AZ  23294.91034278  .00007343  00000-0  47880-3 0  9994,2 54011  53.2158 148.8623 0001520  79.8867 280.2296 15.08851016 58290,6917.847,95.437,540.763,538.66,0.0
54011.0,STARLINK-5124,PAYLOAD,2023-10-22 07:23:12,15.08838902,0.000188,53.2152,147.0744,84.9466,275.1741,-7.2774e-05,-1.446e-05,0.0,0 STARLINK-5124,1 54011U 22125AZ  23295.30778682 -.00001446  00000-0 -72774-4 0  9993,2 54011  53.2152 147.0744 0001880  84.9466 275.1741 15.08838902 58400,6917.884,95.438,541.049,538.448,0.0
54011.0,STARLINK-5124,PAYLOAD,2023-10-22 21:41:41,15.08836355,0.0001584,53.2155,144.4017,91.4063,268.7111,0.00029673,4.437e-05,0.0,0 STARLINK-5124,1 54011U 22125AZ  23295.90395114  .00004437  00000-0  29673-3 0  9994,2 54011  53.2155 144.4017 0001584  91.4063 268.7111 15.08836355 58447,6917.892,95.438,540.852,538.661,0.0
54011.0,STARLINK-5124,PAYLOAD,2023-10-23 19:57:05,15.08846548,0.0001505,53.2151,140.2395,95.6199,264.4964,0.00066164,0.0001026,0.0,0 STARLINK-5124,1 54011U 22125AZ  23296.83131378  .00010260  00000-0  66164-3 0  9994,2 54011  53.2151 140.2395 0001505  95.6199 264.4964 15.08846548 58630,6917.86,95.437,540.767,538.684,0.0
54011.0,STARLINK-5124,PAYLOAD,2023-10-23 21:32:28,15.08847965,0.0001499,53.2152,139.9421,95.6063,264.5101,0.00066929,0.00010382,0.0,0 STARLINK-5124,1 54011U 22125AZ  23296.89755331  .00010382  00000-0  66929-3 0  9995,2 54011  53.2152 139.9421 0001499  95.6063 264.5101 15.08847965 58591,6917.856,95.437,540.758,538.684,0.0
54011.0,STARLINK-5124,PAYLOAD,2023-10-24 03:54:01,15.08835461,0.0001543,53.2152,138.7525,91.8625,268.2544,0.00041182,6.271e-05,0.0,0 STARLINK-5124,1 54011U 22125AZ  23297.16251529  .00006271  00000-0  41182-3 0  9992,2 54011  53.2152 138.7525 0001543  91.8625 268.2544 15.08835461 58685,6917.894,95.438,540.827,538.692,0.0
54011.0,STARLINK-5124,PAYLOAD,2023-10-24 13:26:20,15.08837148,0.0001618,53.2156,136.9693,80.0153,280.1022,0.00022795,3.341e-05,0.0,0 STARLINK-5124,1 54011U 22125AZ  23297.55995750  .00003341  00000-0  22795-3 0  9990,2 54011  53.2156 136.9693 0001618  80.0153 280.1022 15.08837148 58693,6917.889,95.438,540.873,538.635,0.0
54011.0,STARLINK-5124,PAYLOAD,2023-10-25 13:17:08,15.08838632,0.0001362,53.2155,132.5075,88.7975,271.3173,0.00017029,2.423e-05,0.0,0 STARLINK-5124,1 54011U 22125AZ  23298.55356549  .00002423  00000-0  17029-3 0  9992,2 54011  53.2155 132.5075 0001362  88.7975 271.3173 15.08838632 58891,6917.885,95.438,540.692,538.807,0.0
54011.0,STARLINK-5124,PAYLOAD,2023-10-25 21:14:03,15.08847813,0.0001425,53.2162,131.0203,89.4025,270.713,0.00012991,1.781e-05,0.0,0 STARLINK-5124,1 54011U 22125AZ  23298.88475821  .00001781  00000-0  12991-3 0  9992,2 54011  53.2162 131.0203 0001425  89.4025 270.7130 15.08847813 58897,6917.857,95.437,540.707,538.736,0.0
54011.0,STARLINK-5124,PAYLOAD,2023-10-26 03:35:35,15.08850952,0.0001417,53.2153,129.8309,86.3044,273.811,0.00027455,4.085e-05,0.0,0 STARLINK-5124,1 54011U 22125AZ  23299.14971939  .00004085  00000-0  27455-3 0  9994,2 54011  53.2153 129.8309 0001417  86.3044 273.8110 15.08850952 58987,6917.847,95.437,540.692,538.732,0.0
54011.0,STARLINK-5124,PAYLOAD,2023-10-26 13:07:54,15.08853979,0.0001425,53.2157,128.0473,83.6627,276.4528,0.00039224,5.962e-05,0.0,0 STARLINK-5124,1 54011U 22125AZ  23299.54715667  .00005962  00000-0  39224-3 0  9994,2 54011  53.2157 128.0473 0001425  83.6627 276.4528 15.08853979 58995,6917.838,95.437,540.688,538.717,0.0
54011.0,STARLINK-5124,PAYLOAD,2023-10-26 19:29:26,15.08865165,0.0001412,53.2153,126.8581,80.9804,279.1348,0.0006143,9.509e-05,0.0,0 STARLINK-5124,1 54011U 22125AZ  23299.81211336  .00009509  00000-0  61430-3 0  9993,2 54011  53.2153 126.8581 0001412  80.9804 279.1348 15.08865165 59036,6917.803,95.436,540.645,538.692,0.0
54011.0,STARLINK-5124,PAYLOAD,2023-10-27 05:01:45,15.0885877,0.0001537,53.2154,125.0728,79.36,280.7565,0.00023103,3.393e-05,0.0,0 STARLINK-5124,1 54011U 22125AZ  23300.20955085  .00003393  00000-0  23103-3 0  9995,2 54011  53.2154 125.0728 0001537  79.3600 280.7565 15.08858770 59140,6917.823,95.436,540.751,538.625,0.0
54011.0,STARLINK-5124,PAYLOAD,2023-10-27 12:58:40,15.08855281,0.0001709,53.2154,123.5866,74.6064,285.5117,4.4976e-05,4.28e-06,0.0,0 STARLINK-5124,1 54011U 22125AZ  23300.54074878  .00000428  00000-0  44976-4 0  9992,2 54011  53.2154 123.5866 0001709  74.6064 285.5117 15.08855281 59149,6917.834,95.437,540.881,538.516,0.0
